[{"OBJECT_NAME":"STARLINK-4763","OBJECT_ID":"2022-111AJ","EPOCH":"2026-03-09T19:32:18.331584","MEAN_MOTION":15.08839551,"ECCENTRICITY":0.00012136,"INCLINATION":53.216,"RA_OF_ASC_NODE":248.6923,"ARG_OF_PERICENTER":94.8468,"MEAN_ANOMALY":265.2663,"EPHEMERIS_TYPE":0,"CLASSIFICATION_TYPE":"U","NORAD_CAT_ID":53805,"ELEMENT_SET_NO":999,"REV_AT_EPOCH":19404,"BSTAR":0.00011144827,"MEAN_MOTION_DOT":1.486e-5,"MEAN_MOTION_DDOT":0},{"OBJECT_NAME":"LEMUR-2-KREMPEL-BRO2","OBJECT_ID":"2025-061C","EPOCH":"2026-03-09T20:43:52.091904","MEAN_MOTION":15.13192951,"ECCENTRICITY":0.00179248,"INCLINATION":97.5616,"RA_OF_ASC_NODE":45.5365,"ARG_OF_PERICENTER":236.8576,"MEAN_ANOMALY":123.0936,"EPHEMERIS_TYPE":0,"CLASSIFICATION_TYPE":"U","NORAD_CAT_ID":63353,"ELEMENT_SET_NO":999,"REV_AT_EPOCH":5258,"BSTAR":0.00044346981,"MEAN_MOTION_DOT":7.837e-5,"MEAN_MOTION_DDOT":0}]
